METEOSAT 7
1 24932U 97049B   17116.77393491 -.00000025 +00000-0 +00000-0 0  9996
2 24932 010.5935 037.7545 0010836 312.4175 047.4098 00.98307959071939
NOAA 15
1 25338U 98030A   17117.96894994 +.00000036 +00000-0 +34234-4 0  9995
2 25338 098.7838 128.7757 0010432 359.1807 000.9354 14.25788655985583
METEOSAT 8 (MSG 1)
1 27509U 02040B   17117.67664500 +.00000131 +00000-0 +00000-0 0  9995
2 27509 004.7557 058.5253 0000941 266.9424 175.5485 01.00262079053794
KALPANA 1 (METSAT 1)
1 27525U 02043A   17117.35141353 -.00000087 +00000-0 +00000-0 0  9998
2 27525 006.2678 055.5575 0013379 237.2420 122.5229 01.00273567053593
INSAT 3A
1 27714U 03013A   17117.77637519 -.00000129 +00000-0 +00000-0 0  9993
2 27714 001.0496 088.1390 0014707 238.9300 338.3469 00.99813424051413
NOAA 18
1 28654U 05018A   17117.96799378 +.00000017 +00000-0 +34642-4 0  9995
2 28654 099.1861 138.9463 0013859 208.7422 151.2987 14.12334472615079
METEOSAT 9 (MSG 2)
1 28912U 05049B   17117.16504358 +.00000051 +00000-0 +00000-0 0  9995
2 28912 002.1048 070.8043 0000560 129.4061 083.7904 01.00269537041600
MTSAT 2
1 28937U 06004A   17117.84214854 -.00000255 +00000-0 +00000-0 0  9995
2 28937 000.0692 092.9658 0003474 306.2616 264.9760 01.00274084041015
FORMOSAT 3A
1 29047U 06011A   17117.91050652 +.00000050 +00000-0 +35894-4 0  9993
2 29047 071.9786 289.7709 0051657 239.5827 120.0200 14.28575456577577
FORMOSAT 3B
1 29048U 06011B   17117.91100020 +.00000167 +00000-0 +82360-4 0  9998
2 29048 071.9679 201.9770 0044756 196.6805 285.8158 14.28507774580062
FORMOSAT 3C
1 29049U 06011C   17117.73536016 +.00000102 +00000-0 +56574-4 0  9994
2 29049 072.0218 007.5076 0036501 233.3842 126.3936 14.28559313575829
FORMOSAT 3D
1 29050U 06011D   17117.87976436 +.00000267 +00000-0 +66995-4 0  9995
2 29050 072.0156 270.0752 0051757 248.7846 110.7773 14.58492585589139
FORMOSAT 3E
1 29051U 06011E   17117.89784926 +.00000069 +00000-0 +42651-4 0  9992
2 29051 072.0052 271.3373 0067066 107.8415 253.0052 14.28583272578438
FORMOSAT 3F
1 29052U 06011F   17117.90492385 +.00000132 +00000-0 +68118-4 0  9997
2 29052 072.0350 342.1335 0040895 196.2406 163.7423 14.28675539575937
GOES 13
1 29155U 06018A   17116.61117068 -.00000261 +00000-0 +00000-0 0  9993
2 29155 000.2882 273.0145 0004779 151.5840 295.4602 01.00276158009925
METOP-A
1 29499U 06044A   17117.90671132 +.00000021 +00000-0 +29415-4 0  9991
2 29499 098.6830 178.3560 0000944 044.3194 075.3974 14.21497227545997
FENGYUN 2D
1 29640U 06053A   17117.90188513 -.00000371 +00000-0 +10000-3 0  9993
2 29640 004.3605 064.6207 0004790 342.3052 257.6462 01.00276521038091
FENGYUN 3A
1 32958U 08026A   17114.50910717 -.00000040 +00000-0 +62222-6 0  9992
2 32958 098.4136 145.8597 0010947 078.6448 281.5965 14.19657871461722
FENGYUN 2E
1 33463U 08066A   17117.86649177 -.00000218 +00000-0 +00000-0 0  9996
2 33463 002.0878 066.6220 0003340 220.4014 328.0984 01.00269577030623
NOAA 19
1 33591U 09005A   17117.89348672 +.00000104 +00000-0 +81534-4 0  9999
2 33591 099.0880 084.0177 0014922 056.0394 304.2193 14.12174414423290
GOES 14
1 35491U 09033A   17116.69224996 -.00000105 +00000-0 +00000-0 0  9997
2 35491 000.1660 103.8623 0004668 130.2036 125.8996 01.00271284028688
METEOR-M
1 35865U 09049A   17117.94218892 +.00000021 +00000-0 +28288-4 0  9994
2 35865 098.4258 141.8675 0001314 316.1021 044.0052 14.22106913394819
GOES 15
1 36411U 10008A   17116.77924873 +.00000079 +00000-0 +00000-0 0  9993
2 36411 000.1007 105.4333 0002141 051.6756 202.9092 01.00273183026212
COMS 1
1 36744U 10032A   17117.92285057 -.00000358 +00000-0 +00000-0 0  9992
2 36744 000.0164 339.3925 0000715 058.1991 278.9481 01.00270053017620
FENGYUN 3B
1 37214U 10059A   17117.93617325 +.00000013 +00000-0 +29424-4 0  9994
2 37214 098.8899 076.9443 0016132 284.5685 075.3699 14.15848223335439
ELEKTRO-L
1 37344U 11001A   17116.72182454 -.00000262 +00000-0 +00000-0 0  9994
2 37344 002.3349 078.1422 0004268 279.1164 080.8735 01.00219570022996
NPP
1 37849U 11061A   17117.96995167 +.00000005 +00000-0 +23224-4 0  9991
2 37849 098.7325 057.3739 0000564 055.4253 002.0870 14.19546095284971
FENGYUN 2F
1 38049U 12002A   17117.73436551 -.00000369 +00000-0 +00000-0 0  9999
2 38049 001.6134 077.9514 0002913 170.6678 343.7793 01.00276058019425
METEOSAT 10 (MSG 3)
1 38552U 12035B   17117.40141041 -.00000016 +00000-0 +00000-0 0  9994
2 38552 000.8005 051.9205 0000232 155.6438 152.4418 01.00277252017424
METOP-B
1 38771U 12049A   17117.94580154 +.00000028 +00000-0 +32544-4 0  9997
2 38771 098.6834 178.9436 0001717 064.0338 061.1552 14.21497770239145
FENGYUN 3C
1 39260U 13052A   17117.86887908 +.00000007 +00000-0 +23501-4 0  9994
2 39260 098.6512 188.7204 0001660 100.0058 260.1297 14.19645578186248
METEOR M2
1 40069U 14037A   17114.56512847 -.00000028 +00000-0 +70209-5 0  9990
2 40069 098.6618 170.3854 0006438 019.5500 340.6158 14.20641274144948
HIMAWARI 8
1 40267U 14060A   17117.01160997 -.00000288 +00000-0 +00000-0 0  9999
2 40267 000.0115 305.2623 0000585 134.1294 280.6233 01.00269483009298
FENGYUN 2G
1 40367U 14090A   17117.85407676 -.00000343 +00000-0 +00000-0 0  9995
2 40367 000.5380 260.1505 0003624 324.6317 043.1079 01.00281078008579
METEOSAT 11 (MSG 4)
1 40732U 15034A   17117.08970345 -.00000040 +00000-0 +00000-0 0  9997
2 40732 001.9114 243.9311 0000818 126.2920 233.7403 01.00272959006571
ELEKTRO-L 2
1 41105U 15074A   17117.47930025 -.00000109 +00000-0 +00000-0 0  9996
2 41105 000.0633 057.2317 0002068 011.7263 035.2424 01.00271515005058
HIMAWARI 9
1 41836U 16064A   17117.01119582 -.00000286 +00000-0 +00000-0 0  9990
2 41836 000.0381 083.4113 0000619 338.0844 298.5190 01.00271683001724
GOES 16
1 41866U 16071A   17116.65187186 -.00000193 +00000-0 +00000-0 0  9992
2 41866 000.0108 065.4581 0001555 322.9658 331.5936 01.00272028001638
FENGYUN 4A
1 41882U 16077A   17117.97022532 -.00000316 +00000-0 +00000-0 0  9992
2 41882 000.1121 266.7982 0002637 258.2444 139.9757 01.00277180001511
CYGFM05
1 41884U 16078A   17117.87087187 +.00000685 +00000-0 +39010-4 0  9996
2 41884 034.9575 337.0778 0017333 255.0795 104.7996 15.13530095020218
CYGFM04
1 41885U 16078B   17117.70551274 +.00000753 +00000-0 +42263-4 0  9992
2 41885 034.9507 337.5553 0015803 252.4244 107.4741 15.13936034020198
CYGFM02
1 41886U 16078C   17117.91648289 +.00000698 +00000-0 +39424-4 0  9992
2 41886 034.9599 336.5244 0016469 254.5357 105.3535 15.13796344020223
CYGFM01
1 41887U 16078D   17117.94195870 +.00000676 +00000-0 +38521-4 0  9992
2 41887 034.9543 336.6795 0017757 256.1793 103.6942 15.13503626020220
CYGFM08
1 41888U 16078E   17117.86326471 +.00000687 +00000-0 +39019-4 0  9992
2 41888 034.9513 336.9557 0017033 255.1094 104.7731 15.13635664020201
CYGFM06
1 41889U 16078F   17117.89211866 +.00000734 +00000-0 +41137-4 0  9994
2 41889 034.9594 336.3176 0015204 253.2633 106.6410 15.14045414020213
CYGFM07
1 41890U 16078G   17117.88405139 +.00001471 +00000-0 +80367-4 0  9990
2 41890 034.9529 336.1926 0015007 253.5312 106.3749 15.14177283020214
CYGFM03
1 41891U 16078H   17117.87908482 +.00000713 +00000-0 +39883-4 0  9994
2 41891 034.9564 336.1818 0014432 253.4967 106.4158 15.14164487020217
